start=new Date('2021-10-29T00:00:00.000Z').valueOf();
sats=[{"MEAN_ELEMENT_THEORY":"SGP4","SITE":"AFETR","ARG_OF_PERICENTER":"66.2991","OBJECT_TYPE":"PAYLOAD","REF_FRAME":"TEME","CLASSIFICATION_TYPE":"U","FILE":"3189402","TLE_LINE1":"1 48021U 21024AW  21301.51803910  .00000347  00000-0  42230-4 0  9997","GP_ID":"188367810","ECCENTRICITY":"0.00022490","DECAY_DATE":null,"REV_AT_EPOCH":"3529","OBJECT_ID":"2021-024AW","RA_OF_ASC_NODE":"223.6274","TLE_LINE2":"2 48021  53.0544 223.6274 0002249  66.2991 293.8234 15.06395969 35297","MEAN_MOTION_DDOT":"0.0000000000000","MEAN_MOTION_DOT":"0.00000347","EPHEMERIS_TYPE":"0","COUNTRY_CODE":"US","ELEMENT_SET_NO":"999","NORAD_CAT_ID":"48021","OBJECT_NAME":"STARLINK-2301","TIME_SYSTEM":"UTC","MEAN_MOTION":"15.06395969","APOAPSIS":"548.783","INCLINATION":"53.0544","RCS_SIZE":"LARGE","CENTER_NAME":"EARTH","PERIAPSIS":"545.668","EPOCH":"2021-10-28T12:25:58.578240","PERIOD":"95.592","SEMIMAJOR_AXIS":"6925.361","BSTAR":"0.00004223000000","LAUNCH_DATE":"2021-03-24","MEAN_ANOMALY":"293.8234"},{"REF_FRAME":"TEME","OBJECT_TYPE":"PAYLOAD","CLASSIFICATION_TYPE":"U","FILE":"3189402","GP_ID":"188366562","TLE_LINE1":"1 48022U 21024AX  21301.65163119  .00000472  00000-0  50602-4 0  9994","MEAN_ELEMENT_THEORY":"SGP4","SITE":"AFETR","ARG_OF_PERICENTER":"73.1085","MEAN_MOTION_DOT":"0.00000472","EPHEMERIS_TYPE":"0","ECCENTRICITY":"0.00015390","DECAY_DATE":null,"REV_AT_EPOCH":"3452","OBJECT_ID":"2021-024AX","TLE_LINE2":"2 48022  53.0545 283.0492 0001539  73.1085 287.0073 15.06400437 34521","RA_OF_ASC_NODE":"283.0492","MEAN_MOTION_DDOT":"0.0000000000000","TIME_SYSTEM":"UTC","MEAN_MOTION":"15.06400437","APOAPSIS":"548.278","INCLINATION":"53.0545","RCS_SIZE":"LARGE","CENTER_NAME":"EARTH","PERIAPSIS":"546.146","COUNTRY_CODE":"US","ELEMENT_SET_NO":"999","NORAD_CAT_ID":"48022","OBJECT_NAME":"STARLINK-2298","LAUNCH_DATE":"2021-03-24","MEAN_ANOMALY":"287.0073","PERIOD":"95.592","EPOCH":"2021-10-28T15:38:20.934816","SEMIMAJOR_AXIS":"6925.347","BSTAR":"0.00005060200000"},{"MEAN_MOTION":"15.06401610","TIME_SYSTEM":"UTC","CENTER_NAME":"EARTH","PERIAPSIS":"546.137","RCS_SIZE":"LARGE","INCLINATION":"53.0552","APOAPSIS":"548.280","ELEMENT_SET_NO":"999","COUNTRY_CODE":"US","OBJECT_NAME":"STARLINK-2292","NORAD_CAT_ID":"48023","LAUNCH_DATE":"2021-03-24","MEAN_ANOMALY":"290.1906","SEMIMAJOR_AXIS":"6925.344","PERIOD":"95.592","EPOCH":"2021-10-28T16:00:56.956896","BSTAR":"0.00008776500000","FILE":"3189402","CLASSIFICATION_TYPE":"U","OBJECT_TYPE":"PAYLOAD","REF_FRAME":"TEME","GP_ID":"188366812","TLE_LINE1":"1 48023U 21024AY  21301.66732589  .00001026  00000-0  87765-4 0  9995","SITE":"AFETR","MEAN_ELEMENT_THEORY":"SGP4","ARG_OF_PERICENTER":"69.9250","MEAN_MOTION_DOT":"0.00001026","EPHEMERIS_TYPE":"0","DECAY_DATE":null,"ECCENTRICITY":"0.00015470","TLE_LINE2":"2 48023  53.0552 282.9631 0001547  69.9250 290.1906 15.06401610 34523","RA_OF_ASC_NODE":"282.9631","MEAN_MOTION_DDOT":"0.0000000000000","OBJECT_ID":"2021-024AY","REV_AT_EPOCH":"3452"},{"TIME_SYSTEM":"UTC","MEAN_MOTION":"15.73203896","INCLINATION":"53.0422","APOAPSIS":"355.129","CENTER_NAME":"EARTH","PERIAPSIS":"344.369","RCS_SIZE":"LARGE","ELEMENT_SET_NO":"999","COUNTRY_CODE":"US","OBJECT_NAME":"STARLINK-2302","NORAD_CAT_ID":"48024","LAUNCH_DATE":"2021-03-24","MEAN_ANOMALY":"88.5882","EPOCH":"2021-10-29T00:00:00.999648","PERIOD":"91.533","SEMIMAJOR_AXIS":"6727.884","BSTAR":"0.00031186000000","CLASSIFICATION_TYPE":"U","REF_FRAME":"TEME","OBJECT_TYPE":"PAYLOAD","FILE":"3189402","TLE_LINE1":"1 48024U 21024AZ  21302.00001157  .00043459  00000-0  31186-3 0  9996","GP_ID":"188368064","MEAN_ELEMENT_THEORY":"SGP4","SITE":"AFETR","ARG_OF_PERICENTER":"295.3025","MEAN_MOTION_DOT":"0.00043459","EPHEMERIS_TYPE":"0","DECAY_DATE":null,"ECCENTRICITY":"0.00079970","REV_AT_EPOCH":"367","MEAN_MOTION_DDOT":"0.0000000000000","TLE_LINE2":"2 48024  53.0422 197.6239 0007997 295.3025  88.5882 15.73203896  3670","RA_OF_ASC_NODE":"197.6239","OBJECT_ID":"2021-024AZ"},{"SEMIMAJOR_AXIS":"6727.810","EPOCH":"2021-10-29T00:00:00.999648","PERIOD":"91.531","BSTAR":"-0.00018526000000","LAUNCH_DATE":"2021-03-24","MEAN_ANOMALY":"12.3825","ELEMENT_SET_NO":"999","COUNTRY_CODE":"US","OBJECT_NAME":"STARLINK-2318","NORAD_CAT_ID":"48025","MEAN_MOTION":"15.73229858","TIME_SYSTEM":"UTC","PERIAPSIS":"347.834","CENTER_NAME":"EARTH","RCS_SIZE":"LARGE","INCLINATION":"53.0420","APOAPSIS":"351.516","DECAY_DATE":null,"ECCENTRICITY":"0.00027370","RA_OF_ASC_NODE":"197.6172","TLE_LINE2":"2 48025  53.0420 197.6172 0002737  12.0481  12.3825 15.73229858  3670","MEAN_MOTION_DDOT":"0.0000000000000","OBJECT_ID":"2021-024BA","REV_AT_EPOCH":"367","MEAN_MOTION_DOT":"-0.00026584","EPHEMERIS_TYPE":"0","SITE":"AFETR","MEAN_ELEMENT_THEORY":"SGP4","ARG_OF_PERICENTER":"12.0481","FILE":"3189402","CLASSIFICATION_TYPE":"U","OBJECT_TYPE":"PAYLOAD","REF_FRAME":"TEME","GP_ID":"188368311","TLE_LINE1":"1 48025U 21024BA  21302.00001157 -.00026584  00000-0 -18526-3 0  9992"},{"NORAD_CAT_ID":"48026","OBJECT_NAME":"STARLINK-2278","COUNTRY_CODE":"US","ELEMENT_SET_NO":"999","APOAPSIS":"548.242","INCLINATION":"53.0254","RCS_SIZE":"LARGE","CENTER_NAME":"EARTH","PERIAPSIS":"546.213","TIME_SYSTEM":"UTC","MEAN_MOTION":"15.06395363","BSTAR":"0.00010506000000","EPOCH":"2021-10-28T09:08:54.542112","PERIOD":"95.592","SEMIMAJOR_AXIS":"6925.363","MEAN_ANOMALY":"283.6652","LAUNCH_DATE":"2021-03-24","ARG_OF_PERICENTER":"76.4500","MEAN_ELEMENT_THEORY":"SGP4","SITE":"AFETR","GP_ID":"188339770","TLE_LINE1":"1 48026U 21024BB  21301.38118683  .00001284  00000-0  10506-3 0  9994","REF_FRAME":"TEME","OBJECT_TYPE":"PAYLOAD","CLASSIFICATION_TYPE":"U","FILE":"3189111","REV_AT_EPOCH":"3435","OBJECT_ID":"2021-024BB","RA_OF_ASC_NODE":"289.3999","TLE_LINE2":"2 48026  53.0254 289.3999 0001465  76.4500 283.6652 15.06395363 34356","MEAN_MOTION_DDOT":"0.0000000000000","ECCENTRICITY":"0.00014650","DECAY_DATE":null,"EPHEMERIS_TYPE":"0","MEAN_MOTION_DOT":"0.00001284"},{"RA_OF_ASC_NODE":"262.0503","TLE_LINE2":"2 48027  53.0555 262.0503 0001728  71.4866 288.6311 15.06397409 34778","MEAN_MOTION_DDOT":"0.0000000000000","OBJECT_ID":"2021-024BC","REV_AT_EPOCH":"3477","DECAY_DATE":null,"ECCENTRICITY":"0.00017280","EPHEMERIS_TYPE":"0","MEAN_MOTION_DOT":"0.00000452","ARG_OF_PERICENTER":"71.4866","SITE":"AFETR","MEAN_ELEMENT_THEORY":"SGP4","GP_ID":"188367313","TLE_LINE1":"1 48027U 21024BC  21301.87188986  .00000452  00000-0  49240-4 0  9996","FILE":"3189402","CLASSIFICATION_TYPE":"U","OBJECT_TYPE":"PAYLOAD","REF_FRAME":"TEME","BSTAR":"0.00004924000000","SEMIMAJOR_AXIS":"6925.356","PERIOD":"95.592","EPOCH":"2021-10-28T20:55:31.283904","MEAN_ANOMALY":"288.6311","LAUNCH_DATE":"2021-03-24","OBJECT_NAME":"STARLINK-2300","NORAD_CAT_ID":"48027","ELEMENT_SET_NO":"999","COUNTRY_CODE":"US","CENTER_NAME":"EARTH","PERIAPSIS":"546.025","RCS_SIZE":"LARGE","INCLINATION":"53.0555","APOAPSIS":"548.418","MEAN_MOTION":"15.06397409","TIME_SYSTEM":"UTC"},{"ECCENTRICITY":"0.00027730","DECAY_DATE":null,"OBJECT_ID":"2021-024BD","TLE_LINE2":"2 48028  53.0542 216.4665 0002773  61.6865 206.2756 15.06396736  3573","MEAN_MOTION_DDOT":"0.0000000000000","RA_OF_ASC_NODE":"216.4665","REV_AT_EPOCH":"357","MEAN_MOTION_DOT":"-0.00016332","EPHEMERIS_TYPE":"0","SITE":"AFETR","MEAN_ELEMENT_THEORY":"SGP4","ARG_OF_PERICENTER":"61.6865","FILE":"3189402","OBJECT_TYPE":"PAYLOAD","REF_FRAME":"TEME","CLASSIFICATION_TYPE":"U","TLE_LINE1":"1 48028U 21024BD  21302.00001157 -.00016332  00000-0 -10800-2 0  9991","GP_ID":"188367564","SEMIMAJOR_AXIS":"6925.359","PERIOD":"95.592","EPOCH":"2021-10-29T00:00:00.999648","BSTAR":"-0.00108000000000","LAUNCH_DATE":"2021-03-24","MEAN_ANOMALY":"206.2756","COUNTRY_CODE":"US","ELEMENT_SET_NO":"999","NORAD_CAT_ID":"48028","OBJECT_NAME":"STARLINK-2264","MEAN_MOTION":"15.06396736","TIME_SYSTEM":"UTC","RCS_SIZE":"LARGE","PERIAPSIS":"545.303","CENTER_NAME":"EARTH","APOAPSIS":"549.144","INCLINATION":"53.0542"},{"MEAN_MOTION_DOT":"-0.00000555","EPHEMERIS_TYPE":"0","ECCENTRICITY":"0.00015040","DECAY_DATE":null,"REV_AT_EPOCH":"3456","OBJECT_ID":"2021-024BE","TLE_LINE2":"2 48029  53.0563 281.8884 0001504  75.1936 284.9220 15.06396381 34564","RA_OF_ASC_NODE":"281.8884","MEAN_MOTION_DDOT":"0.0000000000000","REF_FRAME":"TEME","OBJECT_TYPE":"PAYLOAD","CLASSIFICATION_TYPE":"U","FILE":"3189402","GP_ID":"188367811","TLE_LINE1":"1 48029U 21024BE  21301.91059910 -.00000555  00000-0 -18369-4 0  9991","MEAN_ELEMENT_THEORY":"SGP4","SITE":"AFETR","ARG_OF_PERICENTER":"75.1936","LAUNCH_DATE":"2021-03-24","MEAN_ANOMALY":"284.9220","PERIOD":"95.592","EPOCH":"2021-10-28T21:51:15.762240","SEMIMAJOR_AXIS":"6925.360","BSTAR":"-0.00001836900000","TIME_SYSTEM":"UTC","MEAN_MOTION":"15.06396381","APOAPSIS":"548.266","INCLINATION":"53.0563","RCS_SIZE":"LARGE","CENTER_NAME":"EARTH","PERIAPSIS":"546.183","COUNTRY_CODE":"US","ELEMENT_SET_NO":"999","NORAD_CAT_ID":"48029","OBJECT_NAME":"STARLINK-2299"},{"EPHEMERIS_TYPE":"0","MEAN_MOTION_DOT":"0.00000035","REV_AT_EPOCH":"3439","OBJECT_ID":"2021-024BF","TLE_LINE2":"2 48030  53.0546 287.9375 0001507  71.7476 288.3677 15.06403080 34393","RA_OF_ASC_NODE":"287.9375","MEAN_MOTION_DDOT":"0.0000000000000","ECCENTRICITY":"0.00015070","DECAY_DATE":null,"TLE_LINE1":"1 48030U 21024BF  21301.67238622  .00000035  00000-0  21264-4 0  9994","GP_ID":"188366563","OBJECT_TYPE":"PAYLOAD","REF_FRAME":"TEME","CLASSIFICATION_TYPE":"U","FILE":"3189402","ARG_OF_PERICENTER":"71.7476","MEAN_ELEMENT_THEORY":"SGP4","SITE":"AFETR","MEAN_ANOMALY":"288.3677","LAUNCH_DATE":"2021-03-24","BSTAR":"0.00002126400000","PERIOD":"95.592","EPOCH":"2021-10-28T16:08:14.169408","SEMIMAJOR_AXIS":"6925.339","APOAPSIS":"548.248","INCLINATION":"53.0546","RCS_SIZE":"LARGE","PERIAPSIS":"546.160","CENTER_NAME":"EARTH","TIME_SYSTEM":"UTC","MEAN_MOTION":"15.06403080","NORAD_CAT_ID":"48030","OBJECT_NAME":"STARLINK-2268","COUNTRY_CODE":"US","ELEMENT_SET_NO":"999"}];
